INTELSAT 902 (IS-902)   
1 26900U 01039A   26186.13904362 -.00000273  00000+0  00000+0 0  9992
2 26900   6.1614  71.5633 0004296  30.9190 180.5967  1.00270929 90875
INTELSAT 904 (IS-904)   
1 27380U 02007A   26185.17261547 -.00000217  00000+0  00000+0 0  9993
2 27380   6.9595  68.9807 0006133  17.8107 226.0553  1.00270910 51932
DIRECTV 5 (TEMPO 1)     
1 27426U 02023A   26184.39558780 -.00000048  00000+0  00000+0 0  9995
2 27426   4.9166  75.1124 0003513  37.3501 201.2642  1.00271698 88287
INTELSAT 905 (IS-905)   
1 27438U 02027A   26185.76539633  .00000103  00000+0  00000+0 0  9991
2 27438   6.7946  69.5884 0003899  37.7783 313.7493  1.00272930 51530
GALAXY 3C (G-3C)        
1 27445U 02030A   26186.13024253 -.00000141  00000+0  00000+0 0  9995
2 27445   3.7762  77.7473 0001805  32.1865 125.2617  1.00271566 46678
INTELSAT 906 (IS-906)   
1 27513U 02041A   26186.16166374  .00000024  00000+0  00000+0 0  9996
2 27513   5.8470  72.6999 0004040  13.1940 319.5977  1.00271083 87202
GALAXY 13 (HORIZONS-1)  
1 27954U 03044A   26186.11927418  .00000145  00000+0  00000+0 0  9992
2 27954   1.4647  83.6340 0001723  18.7101  73.6957  1.00273418 46751
INTELSAT 10-02          
1 28358U 04022A   26186.00620414  .00000002  00000+0  00000+0 0  9994
2 28358   0.0397 258.3723 0000499 291.2155  94.6491  1.00270331 80732
DIRECTV 8               
1 28659U 05019A   26186.19670394  .00000000  00000+0  00000+0 0  9995
2 28659   0.0210  42.3930 0003166  76.7254 115.8440  1.00270054 77256
GALAXY 28 (G-28)        
1 28702U 05022A   26185.92973200 -.00000189  00000+0  00000+0 0  9999
2 28702   3.3414  78.7199 0002413  25.0359 126.7797  1.00269863 52158
GALAXY 16 (G-16)        
1 29236U 06023A   26186.20065988 -.00000114  00000+0  00000+0 0  9999
2 29236   0.0280 137.1888 0002617 328.0404 151.2093  1.00271226 73155
DIRECTV 9S              
1 29494U 06043A   26186.20022655 -.00000101  00000+0  00000+0 0  9997
2 29494   2.4643  80.6934 0005259  26.5514 146.8412  1.00271553 51560
GALAXY 17 (G-17)        
1 31307U 07016B   26186.13214921 -.00000194  00000+0  00000+0 0  9997
2 31307   3.0142  79.6818 0003885  25.3603 140.6421  1.00270106 69985
INTELSAT 11 (IS-11)     
1 32253U 07044B   26186.15819705  .00000078  00000+0  00000+0 0  9992
2 32253   3.6091  78.4578 0003664  92.7256 215.6491  0.99048666 68623
HORIZONS-2              
1 32388U 07063B   26186.20562024 -.00000241  00000+0  00000+0 0  9990
2 32388   2.6455  80.4137 0003950  11.1511 191.8636  1.00273277 67992
DIRECTV 11              
1 32729U 08013A   26185.91535916 -.00000113  00000+0  00000+0 0  9990
2 32729   0.0411 225.2450 0000343 208.0520  79.9704  1.00269605 45776
GALAXY 18 (G-18)        
1 32951U 08024A   26186.05334318  .00000038  00000+0  00000+0 0  9993
2 32951   0.0194  73.8721 0003090  38.5203  66.8693  1.00272403 46037
GALAXY 19 (G-19)        
1 33376U 08045A   26186.20109323 -.00000126  00000+0  00000+0 0  9990
2 33376   0.0448 243.4472 0002895 239.7568 135.3819  1.00270940 65082
FM-5                    
1 35493U 09034A   26183.77931601 -.00000189  00000+0  00000+0 0  9991
2 35493   0.0343 275.0250 0000963  71.7322 128.4433  1.00271535 46804
INTELSAT 14 (IS-14)     
1 36097U 09064A   26186.25672580 -.00000260  00000+0  00000+0 0  9999
2 36097   0.0122 319.7703 0002506 144.8121 226.1061  1.00272457 60783
INTELSAT 15 (IS-15)     
1 36106U 09067A   26186.12753038 -.00000172  00000+0  00000+0 0  9999
2 36106   0.0053  51.4752 0002320  59.9907 302.7272  1.00271817 41405
DIRECTV 12              
1 36131U 09075A   26183.63349326 -.00000092  00000+0  00000+0 0  9991
2 36131   0.0418 186.0830 0000293 277.3252 302.5946  1.00269592 46707
INTELSAT 16 (IS-16)     
1 36397U 10006A   26186.20518691 -.00000231  00000+0  00000+0 0  9995
2 36397   0.0101  39.1604 0002405  84.1571 157.5601  1.00271439 59839
XM-5                    
1 37185U 10053A   26183.85406361 -.00000012  00000+0  00000+0 0  9998
2 37185   0.0667 268.1133 0002415 288.6084 276.4302  1.00271810 57643
INTELSAT 17 (IS-17)     
1 37238U 10065B   26186.16201041  .00000012  00000+0  00000+0 0  9994
2 37238   0.0042  48.0005 0002561  59.9264 299.5411  1.00272165 53426
INTELSAT 28 (IS-28)     
1 37392U 11016A   26186.17525535 -.00000213  00000+0  00000+0 0  9994
2 37392   1.8497  82.4125 0003830  25.4226 206.6890  1.00271163 53462
INTELSAT 18 (IS-18)     
1 37834U 11056A   26186.18460038  .00000066  00000+0  00000+0 0  9991
2 37834   0.0195 291.7484 0001935 181.2028  56.6829  1.00271917 53997
INTELSAT 22 (IS-22)     
1 38098U 12011A   26186.16322375 -.00000045  00000+0  00000+0 0  9993
2 38098   0.0217  57.9162 0001709  43.4768 312.6166  1.00271412  7368
INTELSAT 19 (IS-19)     
1 38356U 12030A   26186.19905799 -.00000043  00000+0  00000+0 0  9999
2 38356   0.0164  38.7379 0003291  75.8247  46.2954  1.00271550 50638
INTELSAT 20 (IS-20)     
1 38740U 12043A   26186.16235707 -.00000011  00000+0  00000+0 0  9997
2 38740   0.0103  49.6416 0001273 130.8763 229.5771  1.00270762 50923
INTELSAT 21 (IS-21)     
1 38749U 12045A   26186.20874025 -.00000272  00000+0  00000+0 0  9994
2 38749   0.0188 294.8026 0001838 185.9128 179.6476  1.00271421 50705
