OBJECT_NAME,OBJECT_ID,EPOCH,MEAN_MOTION,ECCENTRICITY,INCLINATION,RA_OF_ASC_NODE,ARG_OF_PERICENTER,MEAN_ANOMALY,EPHEMERIS_TYPE,CLASSIFICATION_TYPE,NORAD_CAT_ID,ELEMENT_SET_NO,REV_AT_EPOCH,BSTAR,MEAN_MOTION_DOT,MEAN_MOTION_DDOT
INTELSAT 902 (IS-902),2001-039A,2026-07-05T03:20:13.368768,1.00270929,.00042962,6.1614,71.5633,30.9190,180.5967,0,U,26900,999,9087,0,-.273E-5,0
INTELSAT 904 (IS-904),2002-007A,2026-07-04T04:08:33.975744,1.00270910,.0006133,6.9595,68.9807,17.8107,226.0553,0,U,27380,999,5193,0,-.217E-5,0
DIRECTV 5 (TEMPO 1),2002-023A,2026-07-03T09:29:38.785920,1.00271698,.0003513,4.9166,75.1124,37.3501,201.2642,0,U,27426,999,8828,0,-.48E-6,0
INTELSAT 905 (IS-905),2002-027A,2026-07-04T18:22:10.242912,1.00272930,.00038993,6.7946,69.5884,37.7783,313.7493,0,U,27438,999,5153,0,.103E-5,0
GALAXY 3C (G-3C),2002-030A,2026-07-05T03:07:32.954592,1.00271566,.00018051,3.7762,77.7473,32.1865,125.2617,0,U,27445,999,4667,0,-.141E-5,0
INTELSAT 906 (IS-906),2002-041A,2026-07-05T03:52:47.747136,1.00271083,.00040404,5.8470,72.6999,13.1940,319.5977,0,U,27513,999,8720,0,.24E-6,0
GALAXY 13 (HORIZONS-1),2003-044A,2026-07-05T02:51:45.289152,1.00273418,.00017239,1.4647,83.6340,18.7101,73.6957,0,U,27954,999,4675,0,.145E-5,0
INTELSAT 10-02,2004-022A,2026-07-05T00:08:56.037696,1.00270331,.0000499,0.0397,258.3723,291.2155,94.6491,0,U,28358,999,8073,0,.2E-7,0
DIRECTV 8,2005-019A,2026-07-05T04:43:15.220416,1.00270054,.00031668,0.0210,42.3930,76.7254,115.8440,0,U,28659,999,7725,0,0,0
GALAXY 28 (G-28),2005-022A,2026-07-04T22:18:48.844800,1.00269863,.00024137,3.3414,78.7199,25.0359,126.7797,0,U,28702,999,5215,0,-.189E-5,0
GALAXY 16 (G-16),2006-023A,2026-07-05T04:48:57.013632,1.00271226,.00026175,0.0280,137.1888,328.0404,151.2093,0,U,29236,999,7315,0,-.114E-5,0
DIRECTV 9S,2006-043A,2026-07-05T04:48:19.573920,1.00271553,.00052592,2.4643,80.6934,26.5514,146.8412,0,U,29494,999,5156,0,-.101E-5,0
GALAXY 17 (G-17),2007-016B,2026-07-05T03:10:17.691744,1.00270106,.0003885,3.0142,79.6818,25.3603,140.6421,0,U,31307,999,6998,0,-.194E-5,0
INTELSAT 11 (IS-11),2007-044B,2026-07-05T03:47:48.225120,0.99048666,.00036643,3.6091,78.4578,92.7256,215.6491,0,U,32253,999,6862,0,.78E-6,0
HORIZONS-2,2007-063B,2026-07-05T04:56:05.588736,1.00273277,.00039501,2.6455,80.4137,11.1511,191.8636,0,U,32388,999,6799,0,-.241E-5,0
DIRECTV 11,2008-013A,2026-07-04T21:58:07.031424,1.00269605,.00003437,0.0411,225.2450,208.0520,79.9704,0,U,32729,999,4577,0,-.113E-5,0
GALAXY 18 (G-18),2008-024A,2026-07-05T01:16:48.850752,1.00272403,.00030902,0.0194,73.8721,38.5203,66.8693,0,U,32951,999,4603,0,.38E-6,0
GALAXY 19 (G-19),2008-045A,2026-07-05T04:49:34.455072,1.00270940,.00028951,0.0448,243.4472,239.7568,135.3819,0,U,33376,999,6508,0,-.126E-5,0
FM-5,2009-034A,2026-07-02T18:42:12.903264,1.00271535,.00009637,0.0343,275.0250,71.7322,128.4433,0,U,35493,999,4680,0,-.189E-5,0
INTELSAT 14 (IS-14),2009-064A,2026-07-05T06:09:41.109120,1.00272457,.00025066,0.0122,319.7703,144.8121,226.1061,0,U,36097,999,6078,0,-.26E-5,0
INTELSAT 15 (IS-15),2009-067A,2026-07-05T03:03:38.624832,1.00271817,.00023202,0.0053,51.4752,59.9907,302.7272,0,U,36106,999,4140,0,-.172E-5,0
DIRECTV 12,2009-075A,2026-07-02T15:12:13.817664,1.00269592,.00002931,0.0418,186.0830,277.3252,302.5946,0,U,36131,999,4670,0,-.92E-6,0
INTELSAT 16 (IS-16),2010-006A,2026-07-05T04:55:28.149024,1.00271439,.00024052,0.0101,39.1604,84.1571,157.5601,0,U,36397,999,5983,0,-.231E-5,0
XM-5,2010-053A,2026-07-02T20:29:51.095904,1.00271810,.00024153,0.0667,268.1133,288.6084,276.4302,0,U,37185,999,5764,0,-.12E-6,0
INTELSAT 17 (IS-17),2010-065B,2026-07-05T03:53:17.699424,1.00272165,.00025614,0.0042,48.0005,59.9264,299.5411,0,U,37238,999,5342,0,.12E-6,0
INTELSAT 28 (IS-28),2011-016A,2026-07-05T04:12:22.062240,1.00271163,.00038302,1.8497,82.4125,25.4226,206.6890,0,U,37392,999,5346,0,-.213E-5,0
INTELSAT 18 (IS-18),2011-056A,2026-07-05T04:25:49.472832,1.00271917,.00019352,0.0195,291.7484,181.2028,56.6829,0,U,37834,999,5399,0,.66E-6,0
INTELSAT 22 (IS-22),2012-011A,2026-07-05T03:55:02.532000,1.00271412,.00017093,0.0217,57.9162,43.4768,312.6166,0,U,38098,999,736,0,-.45E-6,0
INTELSAT 19 (IS-19),2012-030A,2026-07-05T04:46:38.610336,1.00271550,.0003291,0.0164,38.7379,75.8247,46.2954,0,U,38356,999,5063,0,-.43E-6,0
INTELSAT 20 (IS-20),2012-043A,2026-07-05T03:53:47.650848,1.00270762,.00012738,0.0103,49.6416,130.8763,229.5771,0,U,38740,999,5092,0,-.11E-6,0
INTELSAT 21 (IS-21),2012-045A,2026-07-05T05:00:35.157600,1.00271421,.00018385,0.0188,294.8026,185.9128,179.6476,0,U,38749,999,5070,0,-.272E-5,0
